0 EXPLORER 25 (INJUN-4)
1 00932U 64076B   13281.43684839  .00000371  00000-0  13538-3 0  5706
2 00932 081.3441 328.5894 1137281 292.7568 055.7340 12.62663045233027
0 EXPLORER 25 (INJUN-4)
1 00932U 64076B   13282.46687957  .00000440  00000-0  16040-3 0  5713
2 00932 081.3440 327.8023 1137269 290.4354 057.8320 12.62665974233154
0 EXPLORER 25 (INJUN-4)
1 00932U 64076B   13283.49691264  .00000455  00000-0  16587-3 0  5726
2 00932 081.3438 327.0153 1137256 288.1135 059.9481 12.62666366233285
0 EXPLORER 25 (INJUN-4)
1 00932U 64076B   13286.11162661  .00000485  00000-0  17707-3 0  5742
2 00932 081.3431 325.0174 1137234 282.2197 065.4011 12.62668731233614
0 EXPLORER 25 (INJUN-4)
1 00932U 64076B   13287.14167156  .00000524  00000-0  19120-3 0  5756
2 00932 081.3428 324.2303 1137246 279.8981 067.5823 12.62669797233742
0 EXPLORER 25 (INJUN-4)
1 00932U 64076B   13288.48865794  .00000711  00000-0  25946-3 0  5769
2 00932 081.3425 323.2009 1137259 276.8627 070.4637 12.62672497233915
0 EXPLORER 25 (INJUN-4)
1 00932U 64076B   13289.51871023  .00000567  00000-0  20666-3 0  5770
2 00932 081.3423 322.4137 1137256 274.5410 072.6907 12.62674140234044
0 EXPLORER 25 (INJUN-4)
1 00932U 64076B   13291.02417628  .00000538  00000-0  19632-3 0  5786
2 00932 081.3422 321.2630 1137254 271.1483 075.9818 12.62675983234233
0 EXPLORER 25 (INJUN-4)
1 00932U 64076B   13292.45041399  .00000583  00000-0  21264-3 0  5797
2 00932 081.3422 320.1729 1137252 267.9337 079.1411 12.62677442234416
0 EXPLORER 25 (INJUN-4)
1 00932U 64076B   13293.79742277  .00000645  00000-0  23501-3 0  5805
2 00932 081.3422 319.1433 1137263 264.8984 082.1614 12.62678755234587
0 EXPLORER 25 (INJUN-4)
1 00932U 64076B   13295.06520199  .00000666  00000-0  24279-3 0  5811
2 00932 081.3421 318.1744 1137268 262.0412 085.0382 12.62680424234749
